NORAD_CAT_ID,OBJECT_NAME,OBJECT_TYPE,EPOCH,MEAN_MOTION,ECCENTRICITY,INCLINATION,RA_OF_ASC_NODE,ARG_OF_PERICENTER,MEAN_ANOMALY,BSTAR,MEAN_MOTION_DOT,MEAN_MOTION_DDOT,TLE_LINE0,TLE_LINE1,TLE_LINE2,SEMIMAJOR_AXIS,PERIOD,APOGEE,PERIGEE,DECAYED
53430.0,STARLINK-4538,PAYLOAD,2024-07-29 13:07:02,15.08847622,0.0001149,53.2149,224.4374,86.2822,273.8301,1.3305e-05,-7.6e-07,0.0,0 STARLINK-4538,1 53430U 22097AU  24211.54655210 -.00000076  00000-0  13305-4 0  9993,2 53430  53.2149 224.4374 0001149  86.2822 273.8301 15.08847622109513,6917.857,95.437,540.517,538.927,0.0
53430.0,STARLINK-4538,PAYLOAD,2024-07-30 05:00:55,15.08712298,0.0001987,53.2151,221.4637,96.833,263.2888,0.0019522,0.00030809,0.0,0 STARLINK-4538,1 53430U 22097AU  24212.20897944  .00030809  00000-0  19522-2 0  9990,2 53430  53.2151 221.4637 0001987  96.8330 263.2888 15.08712298109610,6918.271,95.446,541.51,538.761,0.0
53430.0,STARLINK-4538,PAYLOAD,2024-07-30 09:46:54,15.09125938,0.0002566,53.2146,220.5702,330.9211,29.1638,-0.0043824,-0.00069907,0.0,0 STARLINK-4538,1 53430U 22097AU  24212.40757186 -.00069907  00000-0 -43824-2 0  9990,2 53430  53.2146 220.5702 0002566 330.9211  29.1638 15.09125938109646,6917.007,95.419,540.646,537.097,0.0
53430.0,STARLINK-4538,PAYLOAD,2024-07-30 17:43:58,15.08847951,0.0001322,53.2151,219.0846,84.7947,275.3196,0.00018684,2.688e-05,0.0,0 STARLINK-4538,1 53430U 22097AU  24212.73887280  .00002688  00000-0  18684-3 0  9993,2 53430  53.2151 219.0846 0001322  84.7947 275.3196 15.08847951109697,6917.856,95.437,540.636,538.807,0.0
53430.0,STARLINK-4538,PAYLOAD,2024-07-31 08:02:26,15.08845138,0.0001386,53.2141,216.4085,84.8215,275.2935,0.00015502,2.18e-05,0.0,0 STARLINK-4538,1 53430U 22097AU  24213.33503472  .00002180  00000-0  15502-3 0  9991,2 53430  53.2141 216.4085 0001386  84.8215 275.2935 15.08845138110249,6917.865,95.437,540.689,538.771,0.0
53430.0,STARLINK-4538,PAYLOAD,2024-08-01 06:17:50,15.08846199,0.0001394,53.2139,212.245,85.1063,275.0088,0.00013061,1.792e-05,0.0,0 STARLINK-4538,1 53430U 22097AU  24214.26239359  .00001792  00000-0  13061-3 0  9990,2 53430  53.2139 212.2450 0001394  85.1063 275.0088 15.08846199109928,6917.861,95.437,540.691,538.762,0.0
53430.0,STARLINK-4538,PAYLOAD,2024-08-01 17:25:32,15.08845994,0.0001372,53.2138,210.163,85.7335,274.3814,0.00010525,1.388e-05,0.0,0 STARLINK-4538,1 53430U 22097AU  24214.72607230  .00001388  00000-0  10525-3 0  9991,2 53430  53.2138 210.1630 0001372  85.7335 274.3814 15.08845994110459,6917.862,95.437,540.676,538.778,0.0
53430.0,STARLINK-4538,PAYLOAD,2024-08-02 04:33:14,15.08838706,0.0001434,53.2141,208.0827,84.8543,275.2613,5.2473e-05,5.47e-06,0.0,0 STARLINK-4538,1 53430U 22097AU  24215.18975682  .00000547  00000-0  52473-4 0  9996,2 53430  53.2141 208.0827 0001434  84.8543 275.2613 15.08838706110064,6917.884,95.438,540.741,538.757,0.0
53430.0,STARLINK-4538,PAYLOAD,2024-08-02 09:19:24,15.08841862,0.0001468,53.2159,207.1888,93.5055,266.6105,6.7074e-05,7.8e-06,0.0,0 STARLINK-4538,1 53430U 22097AU  24215.38847454  .00000780  00000-0  67074-4 0  9995,2 53430  53.2159 207.1888 0001468  93.5055 266.6105 15.08841862110553,6917.875,95.437,540.755,538.724,0.0
53430.0,STARLINK-4538,PAYLOAD,2024-08-03 05:59:25,15.0884105,0.0001452,53.2162,203.3229,93.405,266.7108,3.8504e-05,3.25e-06,0.0,0 STARLINK-4538,1 53430U 22097AU  24216.24959524  .00000325  00000-0  38504-4 0  9994,2 53430  53.2162 203.3229 0001452  93.4050 266.7108 15.08841050110228,6917.877,95.437,540.747,538.738,0.0
53430.0,STARLINK-4538,PAYLOAD,2024-08-03 09:10:11,15.0884078,0.0001442,53.2162,202.7282,93.0507,267.0651,3.1065e-05,2.06e-06,0.0,0 STARLINK-4538,1 53430U 22097AU  24216.38207539  .00000206  00000-0  31065-4 0  9994,2 53430  53.2162 202.7282 0001442  93.0507 267.0651 15.08840780110701,6917.878,95.438,540.741,538.745,0.0
53430.0,STARLINK-4538,PAYLOAD,2024-08-04 05:50:12,15.08837354,0.0001383,53.2159,198.8616,91.5612,268.5539,7.3997e-05,8.9e-06,0.0,0 STARLINK-4538,1 53430U 22097AU  24217.24319752  .00000890  00000-0  73997-4 0  9990,2 53430  53.2159 198.8616 0001383  91.5612 268.5539 15.08837354110835,6917.888,95.438,540.71,538.797,0.0
53430.0,STARLINK-4538,PAYLOAD,2024-08-04 21:44:03,15.08842633,0.0001359,53.2176,195.8941,90.0237,270.0911,0.00012476,1.698e-05,0.0,0 STARLINK-4538,1 53430U 22097AU  24217.90559350  .00001698  00000-0  12476-3 0  9994,2 53430  53.2176 195.8941 0001359  90.0237 270.0911 15.08842633110470,6917.872,95.437,540.677,538.797,0.0
53430.0,STARLINK-4538,PAYLOAD,2024-08-05 05:40:59,15.08835111,0.0001316,53.2159,194.4051,101.395,258.719,2.9568e-05,1.83e-06,0.0,0 STARLINK-4538,1 53430U 22097AU  24218.23680148  .00000183  00000-0  29568-4 0  9990,2 53430  53.2159 194.4051 0001316 101.3950 258.7190 15.08835111110520,6917.895,95.438,540.671,538.85,0.0
53430.0,STARLINK-4538,PAYLOAD,2024-08-05 15:13:17,15.08847893,0.0001398,53.2161,192.6196,98.2985,261.8166,0.00011187,1.493e-05,0.0,0 STARLINK-4538,1 53430U 22097AU  24218.63423035  .00001493  00000-0  11187-3 0  9996,2 53430  53.2161 192.6196 0001398  98.2985 261.8166 15.08847893110589,6917.856,95.437,540.688,538.754,0.0
53430.0,STARLINK-4538,PAYLOAD,2024-08-06 05:31:47,15.08825041,0.0001463,53.2164,189.9417,81.228,278.8877,-8.5869e-05,-1.654e-05,0.0,0 STARLINK-4538,1 53430U 22097AU  24219.23041638 -.00001654  00000-0 -85869-4 0  9998,2 53430  53.2164 189.9417 0001463  81.2280 278.8877 15.08825041110678,6917.926,95.439,540.803,538.779,0.0
53430.0,STARLINK-4538,PAYLOAD,2024-08-06 07:07:11,15.08826339,0.0001501,53.2168,189.6454,87.2769,272.8395,-6.6353e-05,-1.343e-05,0.0,0 STARLINK-4538,1 53430U 22097AU  24219.29665564 -.00001343  00000-0 -66353-4 0  9996,2 53430  53.2168 189.6454 0001501  87.2769 272.8395 15.08826339111144,6917.922,95.438,540.826,538.749,0.0
53430.0,STARLINK-4538,PAYLOAD,2024-08-06 15:04:06,15.08836009,0.000145,53.2165,188.1586,87.7486,272.3672,8.6802e-06,-1.5e-06,0.0,0 STARLINK-4538,1 53430U 22097AU  24219.62784926 -.00000150  00000-0  86802-5 0  9993,2 53430  53.2165 188.1586 0001450  87.7486 272.3672 15.08836009110737,6917.893,95.438,540.761,538.754,0.0
53430.0,STARLINK-4538,PAYLOAD,2024-08-07 05:22:33,15.08847262,0.0001324,53.2145,185.4818,88.9454,271.169,0.00039826,6.057e-05,0.0,0 STARLINK-4538,1 53430U 22097AU  24220.22400379  .00006057  00000-0  39826-3 0  9991,2 53430  53.2145 185.4818 0001324  88.9454 271.1690 15.08847262110821,6917.858,95.437,540.639,538.807,0.0
53430.0,STARLINK-4538,PAYLOAD,2024-08-08 06:48:43,15.08854851,0.0001585,53.2141,180.7237,111.413,248.7032,0.00034153,5.154e-05,0.0,0 STARLINK-4538,1 53430U 22097AU  24221.28384240  .00005154  00000-0  34153-3 0  9991,2 53430  53.2141 180.7237 0001585 111.4130 248.7032 15.08854851111443,6917.835,95.437,540.796,538.604,0.0
53430.0,STARLINK-4538,PAYLOAD,2024-08-09 03:28:44,15.08849919,0.0001785,53.2155,176.8549,86.368,273.7516,0.00030169,4.518e-05,0.0,0 STARLINK-4538,1 53430U 22097AU  24222.14496218  .00004518  00000-0  30169-3 0  9992,2 53430  53.2155 176.8549 0001785  86.3680 273.7516 15.08849919111110,6917.85,95.437,540.95,538.48,0.0
53430.0,STARLINK-4538,PAYLOAD,2024-08-09 20:57:59,15.08833815,0.0002574,53.215,173.5844,99.77,260.3583,-0.00027018,-4.585e-05,0.0,0 STARLINK-4538,1 53430U 22097AU  24222.87360088 -.00004585  00000-0 -27018-3 0  9992,2 53430  53.2150 173.5844 0002574  99.7700 260.3583 15.08833815111221,6917.899,95.438,541.545,537.984,0.0
53430.0,STARLINK-4538,PAYLOAD,2024-08-10 03:19:31,15.08827462,0.0002111,53.2158,172.3952,109.8704,250.2515,-0.00029205,-4.932e-05,0.0,0 STARLINK-4538,1 53430U 22097AU  24223.13856375 -.00004932  00000-0 -29205-3 0  9997,2 53430  53.2158 172.3952 0002111 109.8704 250.2515 15.08827462111729,6917.919,95.438,541.244,538.323,0.0
53430.0,STARLINK-4538,PAYLOAD,2024-08-11 03:10:19,15.08845566,0.0001748,53.216,167.9356,102.3385,257.7803,0.0010421,0.00016338,0.0,0 STARLINK-4538,1 53430U 22097AU  24224.13216818  .00016338  00000-0  10421-2 0  9990,2 53430  53.2160 167.9356 0001748 102.3385 257.7803 15.08845566111411,6917.863,95.437,540.938,538.519,0.0
53430.0,STARLINK-4538,PAYLOAD,2024-08-11 20:39:33,15.08863923,0.0001691,53.2155,164.6635,107.1622,252.9555,0.0011542,0.00018141,0.0,0 STARLINK-4538,1 53430U 22097AU  24224.86080338  .00018141  00000-0  11542-2 0  9995,2 53430  53.2155 164.6635 0001691 107.1622 252.9555 15.08863923111983,6917.807,95.436,540.842,538.502,0.0
53430.0,STARLINK-4538,PAYLOAD,2024-08-12 03:01:05,15.08852057,0.0001369,53.2153,163.4755,74.295,285.8193,0.0017739,0.00028066,0.0,0 STARLINK-4538,1 53430U 22097AU  24225.12576374  .00028066  00000-0  17739-2 0  9996,2 53430  53.2153 163.4755 0001369  74.2950 285.8193 15.08852057111564,6917.844,95.437,540.656,538.761,0.0
53430.0,STARLINK-4538,PAYLOAD,2024-08-12 06:11:52,15.08860182,0.0001447,53.215,162.8825,87.832,272.2838,0.0023428,0.00037216,0.0,0 STARLINK-4538,1 53430U 22097AU  24225.25824149  .00037216  00000-0  23428-2 0  9995,2 53430  53.2150 162.8825 0001447  87.8320 272.2838 15.08860182112048,6917.819,95.436,540.685,538.683,0.0
53430.0,STARLINK-4538,PAYLOAD,2024-08-12 20:30:19,15.08890749,0.0003469,53.2147,160.1991,114.8159,245.3194,0.0012168,0.00019158,0.0,0 STARLINK-4538,1 53430U 22097AU  24225.85438955  .00019158  00000-0  12168-2 0  9991,2 53430  53.2147 160.1991 0003469 114.8159 245.3194 15.08890749112134,6917.725,95.434,541.99,537.191,0.0
53430.0,STARLINK-4538,PAYLOAD,2024-08-13 02:51:53,15.08793,0.0001426,53.2152,159.0169,91.6486,268.467,-0.0014717,-0.00023604,0.0,0 STARLINK-4538,1 53430U 22097AU  24226.11936971 -.00023604  00000-0 -14717-2 0  9997,2 53430  53.2152 159.0169 0001426  91.6486 268.4670 15.08793000111710,6918.024,95.441,540.876,538.903,0.0
53430.0,STARLINK-4538,PAYLOAD,2024-08-13 12:24:13,15.08782214,0.0001341,53.2152,157.2323,97.3295,262.7849,-0.0011936,-0.00019204,0.0,0 STARLINK-4538,1 53430U 22097AU  24226.51682388 -.00019204  00000-0 -11936-2 0  9992,2 53430  53.2152 157.2323 0001341  97.3295 262.7849 15.08782214112237,6918.057,95.441,540.85,538.994,0.0
